NORAD_CAT_ID,OBJECT_NAME,OBJECT_TYPE,EPOCH,MEAN_MOTION,ECCENTRICITY,INCLINATION,RA_OF_ASC_NODE,ARG_OF_PERICENTER,MEAN_ANOMALY,BSTAR,MEAN_MOTION_DOT,MEAN_MOTION_DDOT,TLE_LINE0,TLE_LINE1,TLE_LINE2,SEMIMAJOR_AXIS,PERIOD,APOGEE,PERIGEE,DECAYED
52857.0,STARLINK-4199,PAYLOAD,2023-01-13 13:28:02,15.08813779,0.0002613,53.2179,151.7292,37.193000000000005,322.9243,-0.00012081,-2.209e-05,0.0,0 STARLINK-4199,1 52857U 22062AD  23013.56114467 -.00002209  00000-0 -12081-3 0  9992,2 52857  53.2179 151.7292 0002613  37.1930 322.9243 15.08813779 32636,6917.960999999999,95.439,541.633,538.018,0.0
52857.0,STARLINK-4199,PAYLOAD,2023-01-14 02:11:07,15.0883161,0.0002712,53.2167,149.3509,40.9082,319.2113,-2.092e-05,-6.21e-06,0.0,0 STARLINK-4199,1 52857U 22062AD  23014.09105690 -.00000621  00000-0 -20920-4 0  9997,2 52857  53.2167 149.3509 0002712  40.9082 319.2113 15.08831610 32715,6917.906,95.438,541.6469999999999,537.895,0.0
52857.0,STARLINK-4199,PAYLOAD,2023-01-14 18:04:56,15.08871303,0.0002623,53.216,146.3775,36.082,324.0349,-0.00057215,-9.391e-05,0.0,0 STARLINK-4199,1 52857U 22062AD  23014.75343432 -.00009391  00000-0 -57215-3 0  9997,2 52857  53.2160 146.3775 0002623  36.0820 324.0349 15.08871303 32816,6917.785,95.436,541.464,537.835,0.0
52857.0,STARLINK-4199,PAYLOAD,2023-01-15 02:01:54,15.08826106,0.0002467,53.2169,144.8899,42.5301,317.5882,0.00040613,6.179e-05,0.0,0 STARLINK-4199,1 52857U 22062AD  23015.08466413  .00006179  00000-0  40613-3 0  9992,2 52857  53.2169 144.8899 0002467  42.5301 317.5882 15.08826106 32862,6917.923000000001,95.438,541.495,538.081,0.0
52857.0,STARLINK-4199,PAYLOAD,2023-01-15 13:09:37,15.08837714,0.0002765,53.2151,142.8098,47.873000000000005,312.2497,0.00034811,5.256e-05,0.0,0 STARLINK-4199,1 52857U 22062AD  23015.54834499  .00005256  00000-0  34811-3 0  9994,2 52857  53.2151 142.8098 0002765  47.8730 312.2497 15.08837714 32442,6917.887,95.438,541.665,537.84,0.0
52857.0,STARLINK-4199,PAYLOAD,2023-01-15 16:20:22,15.08851832,0.0002537,53.216,142.2133,45.4173,314.7025,0.00067339,0.00010449,0.0,0 STARLINK-4199,1 52857U 22062AD  23015.68082130  .00010449  00000-0  67339-3 0  9997,2 52857  53.2160 142.2133 0002537  45.4173 314.7025 15.08851832 32955,6917.844,95.437,541.464,537.9540000000001,0.0
52857.0,STARLINK-4199,PAYLOAD,2023-01-16 01:52:42,15.08849778,0.0002572,53.2156,140.4303,47.6552,312.4658,0.00094509,0.00014789,0.0,0 STARLINK-4199,1 52857U 22062AD  23016.07826395  .00014789  00000-0  94509-3 0  9990,2 52857  53.2156 140.4303 0002572  47.6552 312.4658 15.08849778 33014,6917.851,95.437,541.495,537.936,0.0
52857.0,STARLINK-4199,PAYLOAD,2023-01-16 14:35:47,15.08856672,0.0002432,53.216,138.0508,49.0902,311.0301,0.00090893,0.00014214,0.0,0 STARLINK-4199,1 52857U 22062AD  23016.60818323  .00014214  00000-0  90893-3 0  9996,2 52857  53.2160 138.0508 0002432  49.0902 311.0301 15.08856672 33098,6917.829000000001,95.437,541.377,538.012,0.0
52857.0,STARLINK-4199,PAYLOAD,2023-01-17 14:26:34,15.08837719,0.0001848,53.2169,133.5897,47.8067,312.3081,0.00049293,7.565e-05,0.0,0 STARLINK-4199,1 52857U 22062AD  23017.60179068  .00007565  00000-0  49293-3 0  9992,2 52857  53.2169 133.5897 0001848  47.8067 312.3081 15.08837719 33243,6917.887,95.438,541.031,538.474,0.0
52857.0,STARLINK-4199,PAYLOAD,2023-01-18 14:17:21,15.088688500000002,0.0001894,53.2168,129.1302,53.0108,307.1058,0.0012498,0.00019674,0.0,0 STARLINK-4199,1 52857U 22062AD  23018.59538869  .00019674  00000-0  12498-2 0  9999,2 52857  53.2168 129.1302 0001894  53.0108 307.1058 15.08868850 32908,6917.792,95.436,540.967,538.347,0.0
52857.0,STARLINK-4199,PAYLOAD,2023-01-19 06:11:13,15.08843509,0.0002723,53.2183,126.158,71.0846,289.0441,0.00013293,1.828e-05,0.0,0 STARLINK-4199,1 52857U 22062AD  23019.25779241  .00001828  00000-0  13293-3 0  9991,2 52857  53.2183 126.1580 0002723  71.0846 289.0441 15.08843509 33494,6917.87,95.437,541.618,537.851,0.0
52857.0,STARLINK-4199,PAYLOAD,2023-01-19 07:46:36,15.0883416,0.0001864,53.2191,125.8609,73.1355,286.9842,-0.00018196,-3.182e-05,0.0,0 STARLINK-4199,1 52857U 22062AD  23019.32403224 -.00003182  00000-0 -18196-3 0  9998,2 52857  53.2191 125.8609 0001864  73.1355 286.9842 15.08834160 33016,6917.898,95.438,541.053,538.474,0.0
52857.0,STARLINK-4199,PAYLOAD,2023-01-20 10:48:09,15.08847846,0.0001998,53.2186,120.8054,86.4231,273.6989,0.00056513,8.719e-05,0.0,0 STARLINK-4199,1 52857U 22062AD  23020.45011162  .00008719  00000-0  56513-3 0  9994,2 52857  53.2186 120.8054 0001998  86.4231 273.6989 15.08847846 33679,6917.856,95.437,541.104,538.339,0.0
52857.0,STARLINK-4199,PAYLOAD,2023-01-21 05:52:47,15.08843769,0.0002130999999999,53.2182,117.2392,85.3276,274.796,0.00025224,3.729e-05,0.0,0 STARLINK-4199,1 52857U 22062AD  23021.24499060  .00003729  00000-0  25224-3 0  9990,2 52857  53.2182 117.2392 0002131  85.3276 274.7960 15.08843769 33791,6917.869000000001,95.437,541.2080000000001,538.26,0.0
52857.0,STARLINK-4199,PAYLOAD,2023-01-22 13:40:29,15.08854821,0.0001784,53.2189,111.2879,80.8041,279.3152,0.00028418,4.239e-05,0.0,0 STARLINK-4199,1 52857U 22062AD  23022.56978617  .00004239  00000-0  28418-3 0  9991,2 52857  53.2189 111.2879 0001784  80.8041 279.3152 15.08854821 33992,6917.835,95.437,540.934,538.466,0.0
52857.0,STARLINK-4199,PAYLOAD,2023-01-23 03:58:58,15.08833102,0.0001789,53.2177,108.6164,74.4987,285.6203,2.2618000000000003e-05,7.2e-07,0.0,0 STARLINK-4199,1 52857U 22062AD  23023.16595576  .00000072  00000-0  22618-4 0  9995,2 52857  53.2177 108.6164 0001789  74.4987 285.6203 15.08833102 34086,6917.901,95.438,541.004,538.529,0.0
52857.0,STARLINK-4199,PAYLOAD,2023-01-24 05:25:08,15.08842352,0.0001476,53.2176,103.8561,88.9214,271.1947,0.00024367,3.592e-05,0.0,0 STARLINK-4199,1 52857U 22062AD  23024.22579757  .00003592  00000-0  24367-3 0  9998,2 52857  53.2176 103.8561 0001476  88.9214 271.1947 15.08842352 34249,6917.8730000000005,95.437,540.759,538.717,0.0
52857.0,STARLINK-4199,PAYLOAD,2023-01-25 05:15:56,15.08843478,0.0001312,53.2175,99.3961,93.7271,266.3871,0.00023618,3.473e-05,0.0,0 STARLINK-4199,1 52857U 22062AD  23025.21939839  .00003473  00000-0  23618-3 0  9995,2 52857  53.2175  99.3961 0001312  93.7271 266.3871 15.08843478 34395,6917.87,95.437,540.6419999999999,538.827,0.0
52857.0,STARLINK-4199,PAYLOAD,2023-01-25 13:12:51,15.08845014,0.0001372,53.2182,97.9095,95.8048,264.31,0.000304,4.554e-05,0.0,0 STARLINK-4199,1 52857U 22062AD  23025.55059861  .00004554  00000-0  30400-3 0  9998,2 52857  53.2182  97.9095 0001372  95.8048 264.3100 15.08845014 33958,6917.865,95.437,540.679,538.781,0.0
52857.0,STARLINK-4199,PAYLOAD,2023-01-26 08:17:29,15.08847149,0.0001325,53.2184,94.3416,94.1811,265.9332,0.0002392,3.522e-05,0.0,0 STARLINK-4199,1 52857U 22062AD  23026.34547752  .00003522  00000-0  23920-3 0  9990,2 52857  53.2184  94.3416 0001325  94.1811 265.9332 15.08847149 34569,6917.859,95.437,540.64,538.807,0.0
52857.0,STARLINK-4199,PAYLOAD,2023-01-26 13:03:38,15.08857577,0.000137,53.2183,93.4488,93.5395,266.5753,0.00050318,7.733e-05,0.0,0 STARLINK-4199,1 52857U 22062AD  23026.54419319  .00007733  00000-0  50318-3 0  9998,2 52857  53.2183  93.4488 0001370  93.5395 266.5753 15.08857577 34107,6917.826999999999,95.436,540.639,538.744,0.0
52857.0,STARLINK-4199,PAYLOAD,2023-01-27 08:08:16,15.0883953,0.0001326,53.2185,89.8814,102.5323,257.5818,8.6177e-06,-1.51e-06,0.0,0 STARLINK-4199,1 52857U 22062AD  23027.33907659 -.00000151  00000-0  86177-5 0  9997,2 52857  53.2185  89.8814 0001326 102.5323 257.5818 15.08839530 34712,6917.882,95.438,540.664,538.83,0.0
52857.0,STARLINK-4199,PAYLOAD,2023-01-27 20:51:21,15.08839913,0.0001298,53.2188,87.5025,100.1375,259.9763,1.5016e-05,-4.9e-07,0.0,0 STARLINK-4199,1 52857U 22062AD  23027.86899664 -.00000049  00000-0  15016-4 0  9990,2 52857  53.2188  87.5025 0001298 100.1375 259.9763 15.08839913 34308,6917.880999999999,95.438,540.644,538.8480000000001,0.0
52857.0,STARLINK-4199,PAYLOAD,2023-01-28 12:45:12,15.08839618,0.0001414,53.2194,84.5284,107.3885,252.7262,-6.7917e-06,-3.96e-06,0.0,0 STARLINK-4199,1 52857U 22062AD  23028.53139856 -.00000396  00000-0 -67917-5 0  9999,2 52857  53.2194  84.5284 0001414 107.3885 252.7262 15.08839618 34895,6917.882,95.438,540.725,538.768,0.0
52857.0,STARLINK-4199,PAYLOAD,2023-01-29 20:32:55,15.08837649,0.0001208,53.218,78.5808,88.6825,271.4305,0.00014499,2.02e-05,0.0,0 STARLINK-4199,1 52857U 22062AD  23029.85620183  .00002020  00000-0  14499-3 0  9992,2 52857  53.2180  78.5808 0001208  88.6825 271.4305 15.08837649 35092,6917.888,95.438,540.588,538.917,0.0
52857.0,STARLINK-4199,PAYLOAD,2023-01-30 12:26:47,15.08842191,0.000113,53.218,75.6059,96.961,263.1511,0.00010001,1.304e-05,0.0,0 STARLINK-4199,1 52857U 22062AD  23030.51860059  .00001304  00000-0  10001-3 0  9994,2 52857  53.2180  75.6059 0001130  96.9610 263.1511 15.08842191 34708,6917.874,95.437,540.52,538.957,0.0
52857.0,STARLINK-4199,PAYLOAD,2023-01-30 20:23:42,15.08843318,0.0001257,53.2182,74.1205,85.9638,274.1498,7.2739e-05,8.7e-06,0.0,0 STARLINK-4199,1 52857U 22062AD  23030.84980074  .00000870  00000-0  72739-4 0  9994,2 52857  53.2182  74.1205 0001257  85.9638 274.1498 15.08843318 34758,6917.87,95.437,540.605,538.866,0.0
52857.0,STARLINK-4199,PAYLOAD,2023-01-31 04:20:38,15.08839593,0.000113,53.2181,72.6329,91.5295,268.5827,0.00011639,1.565e-05,0.0,0 STARLINK-4199,1 52857U 22062AD  23031.18100182  .00001565  00000-0  11639-3 0  9999,2 52857  53.2181  72.6329 0001130  91.5295 268.5827 15.08839593 35292,6917.882,95.438,540.528,538.965,0.0
52857.0,STARLINK-4199,PAYLOAD,2023-01-31 12:17:33,15.08849983,0.0001067,53.2181,71.146,90.2995,269.8119,0.00011778,1.588e-05,0.0,0 STARLINK-4199,1 52857U 22062AD  23031.51219465  .00001588  00000-0  11778-3 0  9990,2 52857  53.2181  71.1460 0001067  90.2995 269.8119 15.08849983 35342,6917.85,95.437,540.453,538.977,0.0
